CCSDS_OEM_VERS = 1.0
CREATION_DATE  = 2017-05-11T11:18:33
ORIGINATOR     = GMAT USER

META_START
OBJECT_NAME          = MOPSSat_alt_35785_km_RAAN_90_109
OBJECT_ID            = SatId
CENTER_NAME          = Earth
REF_FRAME            = EME2000
TIME_SYSTEM          = UTC
START_TIME           = 2017-01-01T00:00:00.000
USEABLE_START_TIME   = 2017-01-01T00:00:00.000
USEABLE_STOP_TIME    = 2017-01-02T00:00:00.000
STOP_TIME            = 2017-01-02T00:00:00.000
INTERPOLATION        = Lagrange
INTERPOLATION_DEGREE = 7 
META_STOP


                                                                                   

2017-01-01T11:09:10.000  -7.316440059963453e+03  -4.992354209858221e+04   5.222077341153336e-01   2.477641795583125e+00  -4.549531949939843e-01  -4.563140990016721e-05
2017-01-01T11:09:20.000  -7.291662507365961e+03  -4.992808388483381e+04   5.217511537915027e-01   2.477868507555883e+00  -4.534040299707440e-01  -4.568465420647492e-05
2017-01-01T11:09:30.000  -7.266882691609510e+03  -4.993261017913854e+04   5.212940409978040e-01   2.478094438509606e+00  -4.518548077234119e-01  -4.573790407458870e-05
2017-01-01T11:09:40.000  -7.242100620600458e+03  -4.993712098090741e+04   5.208363956804939e-01   2.478319588498413e+00  -4.503055284625715e-01  -4.579115948410816e-05
2017-01-01T11:09:50.000  -7.217316302216045e+03  -4.994161628955958e+04   5.203782177855319e-01   2.478543957576538e+00  -4.487561923969294e-01  -4.584442041467302e-05
2017-01-01T11:10:00.000  -7.192529744275054e+03  -4.994609610452648e+04   5.199195072580014e-01   2.478767545798544e+00  -4.472067997314846e-01  -4.589768684603282e-05
2017-01-01T11:10:10.000  -7.167740954613180e+03  -4.995056042523876e+04   5.194602640435194e-01   2.478990353218659e+00  -4.456573506722400e-01  -4.595095875788222e-05
2017-01-01T11:10:20.000  -7.142949940756164e+03  -4.995500925118350e+04   5.190004880821348e-01   2.479212379893642e+00  -4.441078454057789e-01  -4.600423613057285e-05
2017-01-01T11:10:30.000  -7.118156710315855e+03  -4.995944258183449e+04   5.185401793157105e-01   2.479433625879296e+00  -4.425582841240133e-01  -4.605751894425258e-05
2017-01-01T11:10:40.000  -7.093361270840533e+03  -4.996386041667876e+04   5.180793376851403e-01   2.479654091231797e+00  -4.410086670148303e-01  -4.611080717919067e-05
2017-01-01T11:10:50.000  -7.068563630394624e+03  -4.996826275511312e+04   5.176179631411183e-01   2.479873776002527e+00  -4.394589942983236e-01  -4.616410081452138e-05
2017-01-01T11:11:00.000  -7.043763796979041e+03  -4.997264959654772e+04   5.171560556333740e-01   2.480092680243250e+00  -4.379092661905646e-01  -4.621739982950029e-05
2017-01-01T11:11:10.000  -7.018961778680743e+03  -4.997702094037920e+04   5.166936151134450e-01   2.480310804004760e+00  -4.363594829129522e-01  -4.627070420317897e-05
2017-01-01T11:11:20.000  -6.994157583276988e+03  -4.998137678606224e+04   5.162306415273552e-01   2.480528147340462e+00  -4.348096446674746e-01  -4.632401391526604e-05
2017-01-01T11:11:30.000  -6.969351218561902e+03  -4.998571713305025e+04   5.157671348216460e-01   2.480744710303405e+00  -4.332597516571229e-01  -4.637732894541482e-05
2017-01-01T11:11:40.000  -6.944542692271169e+03  -4.999004198080893e+04   5.153030949419906e-01   2.480960492946967e+00  -4.317098040811862e-01  -4.643064927338895e-05
2017-01-01T11:11:50.000  -6.919732012111112e+03  -4.999435132881028e+04   5.148385218336978e-01   2.481175495324548e+00  -4.301598021370723e-01  -4.648397487898969e-05
2017-01-01T11:12:00.000  -6.894919185772689e+03  -4.999864517653100e+04   5.143734154420064e-01   2.481389717489491e+00  -4.286097460211777e-01  -4.653730574203599e-05
2017-01-01T11:12:10.000  -6.870104220961183e+03  -5.000292352344723e+04   5.139077757126383e-01   2.481603159494824e+00  -4.270596359307439e-01  -4.659064184229689e-05
2017-01-01T11:12:20.000  -6.845287125409984e+03  -5.000718636903135e+04   5.134416025920302e-01   2.481815821393101e+00  -4.255094720647228e-01  -4.664398315947237e-05
2017-01-01T11:12:30.000  -6.820467906909937e+03  -5.001143371274807e+04   5.129748960279187e-01   2.482027703236195e+00  -4.239592546256030e-01  -4.669732967311971e-05
2017-01-01T11:12:40.000  -6.795646573233908e+03  -5.001566555406677e+04   5.125076559679086e-01   2.482238805075935e+00  -4.224089838147025e-01  -4.675068136281957e-05
2017-01-01T11:12:50.000  -6.770823132464036e+03  -5.001988189240741e+04   5.120398823656810e-01   2.482449126961388e+00  -4.208586598525994e-01  -4.680403820746213e-05
2017-01-01T11:13:00.000  -6.745997592595198e+03  -5.002408272720649e+04   5.115715751734816e-01   2.482658668942157e+00  -4.193082829543737e-01  -4.685740018610985e-05
2017-01-01T11:13:10.000  -6.721169961682454e+03  -5.002826805789229e+04   5.111027343449086e-01   2.482867431067151e+00  -4.177578533388144e-01  -4.691076727767667e-05
2017-01-01T11:13:20.000  -6.696340247269981e+03  -5.003243788398146e+04   5.106333598241339e-01   2.483075413389391e+00  -4.162073711927562e-01  -4.696413946216604e-05
2017-01-01T11:13:30.000  -6.671508456960670e+03  -5.003659220498253e+04   5.101634515566503e-01   2.483282615961212e+00  -4.146568367066538e-01  -4.701751671943609e-05
2017-01-01T11:13:40.000  -6.646674598287112e+03  -5.004073102041807e+04   5.096930094868460e-01   2.483489038835353e+00  -4.131062500665203e-01  -4.707089902948064e-05
2017-01-01T11:13:50.000  -6.621838679032936e+03  -5.004485432976895e+04   5.092220335640243e-01   2.483694682062190e+00  -4.115556114740044e-01  -4.712428637172827e-05
2017-01-01T11:14:00.000  -6.597000706994327e+03  -5.004896213251640e+04   5.087505237379558e-01   2.483899545691818e+00  -4.100049211314882e-01  -4.717767872556527e-05
2017-01-01T11:14:10.000  -6.572160689979899e+03  -5.005305442814099e+04   5.082784799588481e-01   2.484103629774022e+00  -4.084541792420842e-01  -4.723107607033204e-05
2017-01-01T11:14:20.000  -6.547318636049837e+03  -5.005713121608548e+04   5.078059021819575e-01   2.484306934356408e+00  -4.069033860245537e-01  -4.728447838481896e-05
2017-01-01T11:14:30.000  -6.522474553193898e+03  -5.006119249580582e+04   5.073327903614063e-01   2.484509459486950e+00  -4.053525416932167e-01  -4.733788564794880e-05
2017-01-01T11:14:40.000  -6.497628449458254e+03  -5.006523826675078e+04   5.068591444526115e-01   2.484711205212975e+00  -4.038016464658653e-01  -4.739129783850722e-05
2017-01-01T11:14:50.000  -6.472780332384786e+03  -5.006926852845333e+04   5.063849644015956e-01   2.484912171585721e+00  -4.022507005287665e-01  -4.744471493633985e-05
2017-01-01T11:15:00.000  -6.447930209571753e+03  -5.007328328043913e+04   5.059102501556720e-01   2.485112358655774e+00  -4.006997040716604e-01  -4.749813692115496e-05
2017-01-01T11:15:10.000  -6.423078088547081e+03  -5.007728252224747e+04   5.054350016610363e-01   2.485311766474107e+00  -3.991486572798479e-01  -4.755156377279377e-05
2017-01-01T11:15:20.000  -6.398223977089948e+03  -5.008126625337730e+04   5.049592188688488e-01   2.485510395089398e+00  -3.975975603542726e-01  -4.760499547054410e-05
2017-01-01T11:15:30.000  -6.373367882992097e+03  -5.008523447332804e+04   5.044829017307418e-01   2.485708244550054e+00  -3.960464134966142e-01  -4.765843199364907e-05
2017-01-01T11:15:40.000  -6.348509814057743e+03  -5.008918718159853e+04   5.040060501987892e-01   2.485905314904168e+00  -3.944952169092865e-01  -4.771187332130793e-05
2017-01-01T11:15:50.000  -6.323649778342854e+03  -5.009312437765119e+04   5.035286642301623e-01   2.486101606197725e+00  -3.929439708103589e-01  -4.776531943216194e-05
2017-01-01T11:16:00.000  -6.298787783832951e+03  -5.009704606096121e+04   5.030507437808882e-01   2.486297118477066e+00  -3.913926754134609e-01  -4.781877030498582e-05
2017-01-01T11:16:10.000  -6.273923838572422e+03  -5.010095223099659e+04   5.025722888083450e-01   2.486491851787876e+00  -3.898413309358488e-01  -4.787222591841105e-05
2017-01-01T11:16:20.000  -6.249057950094038e+03  -5.010484288730768e+04   5.020932992602889e-01   2.486685806179663e+00  -3.882899375628112e-01  -4.792568625214630e-05
2017-01-01T11:16:30.000  -6.224190125990867e+03  -5.010871802943732e+04   5.016137750858498e-01   2.486878981701268e+00  -3.867384954833539e-01  -4.797915128575446e-05
2017-01-01T11:16:40.000  -6.199320373768654e+03  -5.011257765694410e+04   5.011337162327006e-01   2.487071378402030e+00  -3.851870048809886e-01  -4.803262099896729e-05
2017-01-01T11:16:50.000  -6.174448701242727e+03  -5.011642176933895e+04   5.006531226546607e-01   2.487262996328624e+00  -3.836354659585017e-01  -4.808609537084157e-05
2017-01-01T11:17:00.000  -6.149575116210497e+03  -5.012025036613795e+04   5.001719943054304e-01   2.487453835527694e+00  -3.820838789175166e-01  -4.813957438045342e-05
2017-01-01T11:17:10.000  -6.124699626524561e+03  -5.012406344685020e+04   4.996903311399867e-01   2.487643896045245e+00  -3.805322439630545e-01  -4.819305800674487e-05
2017-01-01T11:17:20.000  -6.099822240072954e+03  -5.012786101098228e+04   4.992081331142400e-01   2.487833177926869e+00  -3.789805613022996e-01  -4.824654622855566e-05
2017-01-01T11:17:30.000  -6.074942964754268e+03  -5.013164305804099e+04   4.987254001845212e-01   2.488021681217884e+00  -3.774288311430504e-01  -4.830003902468729e-05
2017-01-01T11:17:40.000  -6.050061808468690e+03  -5.013540958753492e+04   4.982421323074118e-01   2.488209405963403e+00  -3.758770536931609e-01  -4.835353637391852e-05
2017-01-01T11:17:50.000  -6.025178779029101e+03  -5.013916059898834e+04   4.977583294380346e-01   2.488396352209036e+00  -3.743252291549927e-01  -4.840703825520690e-05
2017-01-01T11:18:00.000  -6.000293884220295e+03  -5.014289609193158e+04   4.972739915311823e-01   2.488582520000409e+00  -3.727733577291141e-01  -4.846054464755103e-05
2017-01-01T11:18:10.000  -5.975407131799016e+03  -5.014661606590130e+04   4.967891185413242e-01   2.488767909383168e+00  -3.712214396142990e-01  -4.851405552999424e-05
